{
  "constellation": "oneweb",
  "timestamp": "2025-07-21T05:06:13.717346+00:00",
  "satellite_count": 651,
  "data": [
    {
      "satellite_name": "ONEWEB-0335",
      "catalog_number": 49201,
      "epoch_year": 2025,
      "epoch_day": 201.45783251,
      "first_derivative": -3.84e-06,
      "second_derivative": 0.0,
      "drag_term": -0.0010874,
      "inclination": 87.8954,
      "right_ascension": 26.1657,
      "eccentricity": 0.0001671,
      "argument_of_perigee": 93.9845,
      "mean_anomaly": 266.1475,
      "mean_motion": 13.13470451,
      "revolution_number": 18737,
      "line1": "1 49201U 21083R   25201.45783251 -.00000384  00000+0 -10874-2 0  9993",
      "line2": "2 49201  87.8954  26.1657 0001671  93.9845 266.1475 13.13470451187375",
      "last_updated": "2025-07-21T05:06:13.714404+00:00",
      "constellation": "oneweb"
    },
    {
      "satellite_name": "ONEWEB-0336",
      "catalog_number": 49202,
      "epoch_year": 2025,
      "epoch_day": 201.50523826,
      "first_derivative": 3.63e-06,
      "second_derivative": 0.0,
      "drag_term": 0.0,
      "inclination": 87.896,
      "right_ascension": 26.1492,
      "eccentricity": 0.0001863,
      "argument_of_perigee": 93.4757,
      "mean_anomaly": 266.6585,
      "mean_motion": 13.13468965,
      "revolution_number": 18867,
      "line1": "1 49202U 21083S   25201.50523826  .00000363  00000+0  95782-3 0  9997",
      "line2": "2 49202  87.8960  26.1492 0001863  93.4757 266.6585 13.13468965188678",
      "last_updated": "2025-07-21T05:06:13.714406+00:00",
      "constellation": "oneweb"
    },
    {
      "satellite_name": "ONEWEB-0337",
      "catalog_number": 49203,
      "epoch_year": 2025,
      "epoch_day": 201.74378591,
      "first_derivative": 2.58e-06,
      "second_derivative": 0.0,
      "drag_term": 0.0,
      "inclination": 87.896,
      "right_ascension": 26.1012,
      "eccentricity": 0.0001616,
      "argument_of_perigee": 87.5489,
      "mean_anomaly": 272.5825,
      "mean_motion": 13.13470924,
      "revolution_number": 18870,
      "line1": "1 49203U 21083T   25201.74378591  .00000258  00000+0  67101-3 0  9998",
      "line2": "2 49203  87.8960  26.1012 0001616  87.5489 272.5825 13.13470924188704",
      "last_updated": "2025-07-21T05:06:13.714408+00:00",
      "constellation": "oneweb"
    },
    {
      "satellite_name": "ONEWEB-0338",
      "catalog_number": 49204,
      "epoch_year": 2025,
      "epoch_day": 201.83284117,
      "first_derivative": -1.4e-07,
      "second_derivative": 0.0,
      "drag_term": -6.645400000000001e-05,
      "inclination": 87.9287,
      "right_ascension": 340.4729,
      "eccentricity": 0.0002169,
      "argument_of_perigee": 92.5924,
      "mean_anomaly": 267.5458,
      "mean_motion": 13.20770694,
      "revolution_number": 19437,
      "line1": "1 49204U 21083U   25201.83284117 -.00000014  00000+0 -66454-4 0  9992",
      "line2": "2 49204  87.9287 340.4729 0002169  92.5924 267.5458 13.20770694194370",
      "last_updated": "2025-07-21T05:06:13.714410+00:00",
      "constellation": "oneweb"
    },
    {
      "satellite_name": "ONEWEB-0339",
      "catalog_number": 49205,
      "epoch_year": 2025,
      "epoch_day": 201.52385062,
      "first_derivative": -1.34e-06,
      "second_derivative": 0.0,
      "drag_term": -0.00040311000000000004,
      "inclination": 87.896,
      "right_ascension": 26.1318,
      "eccentricity": 0.0001797,
      "argument_of_perigee": 84.8418,
      "mean_anomaly": 275.2916,
      "mean_motion": 13.13469844,
      "revolution_number": 18735,
      "line1": "1 49205U 21083V   25201.52385062 -.00000134  00000+0 -40311-3 0  9996",
      "line2": "2 49205  87.8960  26.1318 0001797  84.8418 275.2916 13.13469844187357",
      "last_updated": "2025-07-21T05:06:13.714412+00:00",
      "constellation": "oneweb"
    },
    {
      "satellite_name": "ONEWEB-0340",
      "catalog_number": 49206,
      "epoch_year": 2025,
      "epoch_day": 201.78143781,
      "first_derivative": 3.2e-07,
      "second_derivative": 0.0,
      "drag_term": 0.0,
      "inclination": 87.912,
      "right_ascension": 41.2893,
      "eccentricity": 0.000178,
      "argument_of_perigee": 89.0578,
      "mean_anomaly": 271.0758,
      "mean_motion": 13.18685012,
      "revolution_number": 18758,
      "line1": "1 49206U 21083W   25201.78143781  .00000032  00000+0  48648-4 0  9992",
      "line2": "2 49206  87.9120  41.2893 0001780  89.0578 271.0758 13.18685012187584",
      "last_updated": "2025-07-21T05:06:13.714414+00:00",
      "constellation": "oneweb"
    },
    {
      "satellite_name": "ONEWEB-0341",
      "catalog_number": 49207,
      "epoch_year": 2025,
      "epoch_day": 201.78804296,
      "first_derivative": 1e-07,
      "second_derivative": 0.0,
      "drag_term": -7.030900000000001e-06,
      "inclination": 87.9126,
      "right_ascension": 41.2987,
      "eccentricity": 0.0001526,
      "argument_of_perigee": 69.5659,
      "mean_anomaly": 290.5637,
      "mean_motion": 13.18686339,
      "revolution_number": 18760,
      "line1": "1 49207U 21083X   25201.78804296  .00000010  00000+0 -70309-5 0  9995",
      "line2": "2 49207  87.9126  41.2987 0001526  69.5659 290.5637 13.18686339187604",
      "last_updated": "2025-07-21T05:06:13.714416+00:00",
      "constellation": "oneweb"
    },
    {
      "satellite_name": "ONEWEB-0342",
      "catalog_number": 49208,
      "epoch_year": 2025,
      "epoch_day": 201.83915853,
      "first_derivative": -5.1e-07,
      "second_derivative": 0.0,
      "drag_term": -0.00015839,
      "inclination": 87.9274,
      "right_ascension": 340.4471,
      "eccentricity": 0.0002005,
      "argument_of_perigee": 95.5903,
      "mean_anomaly": 264.5459,
      "mean_motion": 13.20769904,
      "revolution_number": 19434,
      "line1": "1 49208U 21083Y   25201.83915853 -.00000051  00000+0 -15839-3 0  9995",
      "line2": "2 49208  87.9274 340.4471 0002005  95.5903 264.5459 13.20769904194340",
      "last_updated": "2025-07-21T05:06:13.714418+00:00",
      "constellation": "oneweb"
    },
    {
      "satellite_name": "ONEWEB-0343",
      "catalog_number": 49209,
      "epoch_year": 2025,
      "epoch_day": 201.78392914,
      "first_derivative": 8.1e-07,
      "second_derivative": 0.0,
      "drag_term": 0.0,
      "inclination": 87.9124,
      "right_ascension": 41.2863,
      "eccentricity": 0.0001859,
      "argument_of_perigee": 68.2933,
      "mean_anomaly": 291.8397,
      "mean_motion": 13.18687434,
      "revolution_number": 18765,
      "line1": "1 49209U 21083Z   25201.78392914  .00000081  00000+0  17300-3 0  9993",
      "line2": "2 49209  87.9124  41.2863 0001859  68.2933 291.8397 13.18687434187656",
      "last_updated": "2025-07-21T05:06:13.714420+00:00",
      "constellation": "oneweb"
    },
    {
      "satellite_name": "ONEWEB-0344",
      "catalog_number": 49210,
      "epoch_year": 2025,
      "epoch_day": 201.51877713,
      "first_derivative": 1.16e-06,
      "second_derivative": 0.0,
      "drag_term": 0.0,
      "inclination": 87.8961,
      "right_ascension": 26.1724,
      "eccentricity": 0.0001496,
      "argument_of_perigee": 78.8968,
      "mean_anomaly": 281.2329,
      "mean_motion": 13.13468733,
      "revolution_number": 18865,
      "line1": "1 49210U 21083AA  25201.51877713  .00000116  00000+0  28368-3 0  9996",
      "line2": "2 49210  87.8961  26.1724 0001496  78.8968 281.2329 13.13468733188659",
      "last_updated": "2025-07-21T05:06:13.714423+00:00",
      "constellation": "oneweb"
    },
    {
      "satellite_name": "ONEWEB-0345",
      "catalog_number": 49211,
      "epoch_year": 2025,
      "epoch_day": 201.89119866,
      "first_derivative": 1.18e-06,
      "second_derivative": 0.0,
      "drag_term": 0.0,
      "inclination": 87.8958,
      "right_ascension": 26.0505,
      "eccentricity": 0.0001444,
      "argument_of_perigee": 77.7549,
      "mean_anomaly": 282.3741,
      "mean_motion": 13.13469582,
      "revolution_number": 18871,
      "line1": "1 49211U 21083AB  25201.89119866  .00000118  00000+0  28704-3 0  9992",
      "line2": "2 49211  87.8958  26.0505 0001444  77.7549 282.3741 13.13469582188718",
      "last_updated": "2025-07-21T05:06:13.714425+00:00",
      "constellation": "oneweb"
    },
    {
      "satellite_name": "ONEWEB-0346",
      "catalog_number": 49212,
      "epoch_year": 2025,
      "epoch_day": 201.48947642,
      "first_derivative": 2.5e-07,
      "second_derivative": 0.0,
      "drag_term": 0.0,
      "inclination": 87.9123,
      "right_ascension": 41.367,
      "eccentricity": 0.0001582,
      "argument_of_perigee": 106.973,
      "mean_anomaly": 253.1576,
      "mean_motion": 13.18686162,
      "revolution_number": 18626,
      "line1": "1 49212U 21083AC  25201.48947642  .00000025  00000+0  30950-4 0  9993",
      "line2": "2 49212  87.9123  41.3670 0001582 106.9730 253.1576 13.18686162186267",
      "last_updated": "2025-07-21T05:06:13.714427+00:00",
      "constellation": "oneweb"
    },
    {
      "satellite_name": "ONEWEB-0348",
      "catalog_number": 49213,
      "epoch_year": 2025,
      "epoch_day": 201.82969397,
      "first_derivative": -2.9e-07,
      "second_derivative": 0.0,
      "drag_term": -0.00010404,
      "inclination": 87.9283,
      "right_ascension": 340.4587,
      "eccentricity": 0.0001311,
      "argument_of_perigee": 104.2608,
      "mean_anomaly": 255.8671,
      "mean_motion": 13.20772396,
      "revolution_number": 19437,
      "line1": "1 49213U 21083AD  25201.82969397 -.00000029  00000+0 -10404-3 0  9990",
      "line2": "2 49213  87.9283 340.4587 0001311 104.2608 255.8671 13.20772396194374",
      "last_updated": "2025-07-21T05:06:13.714429+00:00",
      "constellation": "oneweb"
    }
  ]
}